STARLINK-36538          
1 67512U 26012V   26036.75002315 -.01851826  00000+0 -15202-1 0  9995
2 67512  42.9990 137.1709 0001260 281.4871 294.0976 15.72843294  3931
STARLINK-36531          
1 67513U 26012W   26036.75002315 -.01852897  00000+0 -14640-1 0  9990
2 67513  42.9990 137.1438 0001294 278.9704 307.6278 15.73724078  3872
STARLINK-36530          
1 67514U 26012X   26036.75002315 -.01853193  00000+0 -15261-1 0  9991
2 67514  42.9992 137.1464 0001296 280.8308 304.4522 15.72773468  3871
STARLINK-36543          
1 67515U 26012Y   26036.75002315 -.01850626  00000+0 -15910-1 0  9991
2 67515  42.9991 137.1533 0001326 279.3022 302.9895 15.71769330  3876
STARLINK-36537          
1 67516U 26012Z   26036.75002315 -.01851821  00000+0 -14574-1 0  9995
2 67516  42.9991 137.0803 0001383 282.2424 328.9986 15.73811403  3878
STARLINK-36544          
1 67517U 26012AA  26036.75002315 -.01855813  00000+0 -14040-1 0  9999
2 67517  42.9993 137.0849 0001311 278.0115 332.2946 15.74718927  3931
STARLINK-36412          
1 67518U 26012AB  26036.75002315 -.01850069  00000+0 -14479-1 0  9994
2 67518  42.9989 137.0362 0001460 278.1502 350.8461 15.73934372  3877
STARLINK-36415          
1 67519U 26012AC  26036.75002315 -.01848523  00000+0 -14340-1 0  9994
2 67519  42.9990 137.0156 0001436 276.3367   0.4446 15.74132507  4090
STARLINK-36547          
1 67520U 26012AD  26036.75002315 -.01850939  00000+0 -14601-1 0  9990
2 67520  42.9988 137.0500 0001444 276.9434 346.1572 15.73755717  3870
STARLINK-36444          
1 67521U 26012AE  26036.75002315 -.01851139  00000+0 -15700-1 0  9995
2 67521  42.9989 137.0972 0001426 279.7769 324.6630 15.72084722  3873
HULIANWANG DIGUI-146    
1 67522U 26013A   26035.77371272  .00000024  00000+0  14118-3 0  9999
2 67522  50.0369 119.0934 0013693 220.0273 139.9617 13.88013425  2308
HULIANWANG DIGUI-147    
1 67523U 26013B   26036.06012253  .00000016  00000+0  13454-3 0  9997
2 67523  50.0050 117.9761 0000369  13.5839 346.5068 13.87953127  2341
