CCSDS_OMM_VERS = 2.0
CREATION_DATE  = 
ORIGINATOR     = 

OBJECT_NAME    = STARLINK-36538
OBJECT_ID      = 2026-012V
CENTER_NAME    = EARTH
REF_FRAME      = TEME
TIME_SYSTEM    = UTC
MEAN_ELEMENT_THEORY = SGP/SGP4

EPOCH          = 2026-02-05T18:00:02.000160
MEAN_MOTION    = 15.72843294
ECCENTRICITY   = .00012608
INCLINATION    = 42.9990
RA_OF_ASC_NODE = 137.1709
ARG_OF_PERICENTER = 281.4871
MEAN_ANOMALY   = 294.0976

EPHEMERIS_TYPE = 0
CLASSIFICATION_TYPE = U
NORAD_CAT_ID   = 67512
ELEMENT_SET_NO = 999
REV_AT_EPOCH   = 393
BSTAR          = -.15202077E-1
MEAN_MOTION_DOT = -.1851826E-1
MEAN_MOTION_DDOT = 0

CCSDS_OMM_VERS = 2.0
CREATION_DATE  = 
ORIGINATOR     = 

OBJECT_NAME    = STARLINK-36531
OBJECT_ID      = 2026-012W
CENTER_NAME    = EARTH
REF_FRAME      = TEME
TIME_SYSTEM    = UTC
MEAN_ELEMENT_THEORY = SGP/SGP4

EPOCH          = 2026-02-05T18:00:02.000160
MEAN_MOTION    = 15.73724078
ECCENTRICITY   = .00012946
INCLINATION    = 42.9990
RA_OF_ASC_NODE = 137.1438
ARG_OF_PERICENTER = 278.9704
MEAN_ANOMALY   = 307.6278

EPHEMERIS_TYPE = 0
CLASSIFICATION_TYPE = U
NORAD_CAT_ID   = 67513
ELEMENT_SET_NO = 999
REV_AT_EPOCH   = 387
BSTAR          = -.14639994E-1
MEAN_MOTION_DOT = -.1852897E-1
MEAN_MOTION_DDOT = 0

CCSDS_OMM_VERS = 2.0
CREATION_DATE  = 
ORIGINATOR     = 

OBJECT_NAME    = STARLINK-36530
OBJECT_ID      = 2026-012X
CENTER_NAME    = EARTH
REF_FRAME      = TEME
TIME_SYSTEM    = UTC
MEAN_ELEMENT_THEORY = SGP/SGP4

EPOCH          = 2026-02-05T18:00:02.000160
MEAN_MOTION    = 15.72773468
ECCENTRICITY   = .00012962
INCLINATION    = 42.9992
RA_OF_ASC_NODE = 137.1464
ARG_OF_PERICENTER = 280.8308
MEAN_ANOMALY   = 304.4522

EPHEMERIS_TYPE = 0
CLASSIFICATION_TYPE = U
NORAD_CAT_ID   = 67514
ELEMENT_SET_NO = 999
REV_AT_EPOCH   = 387
BSTAR          = -.15260813E-1
MEAN_MOTION_DOT = -.1853193E-1
MEAN_MOTION_DDOT = 0

CCSDS_OMM_VERS = 2.0
CREATION_DATE  = 
ORIGINATOR     = 

OBJECT_NAME    = STARLINK-36543
OBJECT_ID      = 2026-012Y
CENTER_NAME    = EARTH
REF_FRAME      = TEME
TIME_SYSTEM    = UTC
MEAN_ELEMENT_THEORY = SGP/SGP4

EPOCH          = 2026-02-05T18:00:02.000160
MEAN_MOTION    = 15.71769330
ECCENTRICITY   = .00013263
INCLINATION    = 42.9991
RA_OF_ASC_NODE = 137.1533
ARG_OF_PERICENTER = 279.3022
MEAN_ANOMALY   = 302.9895

EPHEMERIS_TYPE = 0
CLASSIFICATION_TYPE = U
NORAD_CAT_ID   = 67515
ELEMENT_SET_NO = 999
REV_AT_EPOCH   = 387
BSTAR          = -.15910194E-1
MEAN_MOTION_DOT = -.1850626E-1
MEAN_MOTION_DDOT = 0

CCSDS_OMM_VERS = 2.0
CREATION_DATE  = 
ORIGINATOR     = 

OBJECT_NAME    = STARLINK-36537
OBJECT_ID      = 2026-012Z
CENTER_NAME    = EARTH
REF_FRAME      = TEME
TIME_SYSTEM    = UTC
MEAN_ELEMENT_THEORY = SGP/SGP4

EPOCH          = 2026-02-05T18:00:02.000160
MEAN_MOTION    = 15.73811403
ECCENTRICITY   = .00013839
INCLINATION    = 42.9991
RA_OF_ASC_NODE = 137.0803
ARG_OF_PERICENTER = 282.2424
MEAN_ANOMALY   = 328.9986

EPHEMERIS_TYPE = 0
CLASSIFICATION_TYPE = U
NORAD_CAT_ID   = 67516
ELEMENT_SET_NO = 999
REV_AT_EPOCH   = 387
BSTAR          = -.14573804E-1
MEAN_MOTION_DOT = -.1851821E-1
MEAN_MOTION_DDOT = 0

CCSDS_OMM_VERS = 2.0
CREATION_DATE  = 
ORIGINATOR     = 

OBJECT_NAME    = STARLINK-36544
OBJECT_ID      = 2026-012AA
CENTER_NAME    = EARTH
REF_FRAME      = TEME
TIME_SYSTEM    = UTC
MEAN_ELEMENT_THEORY = SGP/SGP4

EPOCH          = 2026-02-05T18:00:02.000160
MEAN_MOTION    = 15.74718927
ECCENTRICITY   = .00013116
INCLINATION    = 42.9993
RA_OF_ASC_NODE = 137.0849
ARG_OF_PERICENTER = 278.0115
MEAN_ANOMALY   = 332.2946

EPHEMERIS_TYPE = 0
CLASSIFICATION_TYPE = U
NORAD_CAT_ID   = 67517
ELEMENT_SET_NO = 999
REV_AT_EPOCH   = 393
BSTAR          = -.14039744E-1
MEAN_MOTION_DOT = -.1855813E-1
MEAN_MOTION_DDOT = 0

CCSDS_OMM_VERS = 2.0
CREATION_DATE  = 
ORIGINATOR     = 

OBJECT_NAME    = STARLINK-36412
OBJECT_ID      = 2026-012AB
CENTER_NAME    = EARTH
REF_FRAME      = TEME
TIME_SYSTEM    = UTC
MEAN_ELEMENT_THEORY = SGP/SGP4

EPOCH          = 2026-02-05T18:00:02.000160
MEAN_MOTION    = 15.73934372
ECCENTRICITY   = .00014601
INCLINATION    = 42.9989
RA_OF_ASC_NODE = 137.0362
ARG_OF_PERICENTER = 278.1502
MEAN_ANOMALY   = 350.8461

EPHEMERIS_TYPE = 0
CLASSIFICATION_TYPE = U
NORAD_CAT_ID   = 67518
ELEMENT_SET_NO = 999
REV_AT_EPOCH   = 387
BSTAR          = -.14479237E-1
MEAN_MOTION_DOT = -.1850069E-1
MEAN_MOTION_DDOT = 0

CCSDS_OMM_VERS = 2.0
CREATION_DATE  = 
ORIGINATOR     = 

OBJECT_NAME    = STARLINK-36415
OBJECT_ID      = 2026-012AC
CENTER_NAME    = EARTH
REF_FRAME      = TEME
TIME_SYSTEM    = UTC
MEAN_ELEMENT_THEORY = SGP/SGP4

EPOCH          = 2026-02-05T18:00:02.000160
MEAN_MOTION    = 15.74132507
ECCENTRICITY   = .00014361
INCLINATION    = 42.9990
RA_OF_ASC_NODE = 137.0156
ARG_OF_PERICENTER = 276.3367
MEAN_ANOMALY   = 0.4446

EPHEMERIS_TYPE = 0
CLASSIFICATION_TYPE = U
NORAD_CAT_ID   = 67519
ELEMENT_SET_NO = 999
REV_AT_EPOCH   = 409
BSTAR          = -.14340475E-1
MEAN_MOTION_DOT = -.1848523E-1
MEAN_MOTION_DDOT = 0

CCSDS_OMM_VERS = 2.0
CREATION_DATE  = 
ORIGINATOR     = 

OBJECT_NAME    = STARLINK-36547
OBJECT_ID      = 2026-012AD
CENTER_NAME    = EARTH
REF_FRAME      = TEME
TIME_SYSTEM    = UTC
MEAN_ELEMENT_THEORY = SGP/SGP4

EPOCH          = 2026-02-05T18:00:02.000160
MEAN_MOTION    = 15.73755717
ECCENTRICITY   = .0001444
INCLINATION    = 42.9988
RA_OF_ASC_NODE = 137.0500
ARG_OF_PERICENTER = 276.9434
MEAN_ANOMALY   = 346.1572

EPHEMERIS_TYPE = 0
CLASSIFICATION_TYPE = U
NORAD_CAT_ID   = 67520
ELEMENT_SET_NO = 999
REV_AT_EPOCH   = 387
BSTAR          = -.1460084E-1
MEAN_MOTION_DOT = -.1850939E-1
MEAN_MOTION_DDOT = 0

CCSDS_OMM_VERS = 2.0
CREATION_DATE  = 
ORIGINATOR     = 

OBJECT_NAME    = STARLINK-36444
OBJECT_ID      = 2026-012AE
CENTER_NAME    = EARTH
REF_FRAME      = TEME
TIME_SYSTEM    = UTC
MEAN_ELEMENT_THEORY = SGP/SGP4

EPOCH          = 2026-02-05T18:00:02.000160
MEAN_MOTION    = 15.72084722
ECCENTRICITY   = .00014261
INCLINATION    = 42.9989
RA_OF_ASC_NODE = 137.0972
ARG_OF_PERICENTER = 279.7769
MEAN_ANOMALY   = 324.6630

EPHEMERIS_TYPE = 0
CLASSIFICATION_TYPE = U
NORAD_CAT_ID   = 67521
ELEMENT_SET_NO = 999
REV_AT_EPOCH   = 387
BSTAR          = -.15700232E-1
MEAN_MOTION_DOT = -.1851139E-1
MEAN_MOTION_DDOT = 0

CCSDS_OMM_VERS = 2.0
CREATION_DATE  = 
ORIGINATOR     = 

OBJECT_NAME    = HULIANWANG DIGUI-146
OBJECT_ID      = 2026-013A
CENTER_NAME    = EARTH
REF_FRAME      = TEME
TIME_SYSTEM    = UTC
MEAN_ELEMENT_THEORY = SGP/SGP4

EPOCH          = 2026-02-04T18:34:08.779008
MEAN_MOTION    = 13.88013425
ECCENTRICITY   = .00136935
INCLINATION    = 50.0369
RA_OF_ASC_NODE = 119.0934
ARG_OF_PERICENTER = 220.0273
MEAN_ANOMALY   = 139.9617

EPHEMERIS_TYPE = 0
CLASSIFICATION_TYPE = U
NORAD_CAT_ID   = 67522
ELEMENT_SET_NO = 999
REV_AT_EPOCH   = 230
BSTAR          = .14118042E-3
MEAN_MOTION_DOT = .24E-6
MEAN_MOTION_DDOT = 0

CCSDS_OMM_VERS = 2.0
CREATION_DATE  = 
ORIGINATOR     = 

OBJECT_NAME    = HULIANWANG DIGUI-147
OBJECT_ID      = 2026-013B
CENTER_NAME    = EARTH
REF_FRAME      = TEME
TIME_SYSTEM    = UTC
MEAN_ELEMENT_THEORY = SGP/SGP4

EPOCH          = 2026-02-05T01:26:34.586592
MEAN_MOTION    = 13.87953127
ECCENTRICITY   = .00003697
INCLINATION    = 50.0050
RA_OF_ASC_NODE = 117.9761
ARG_OF_PERICENTER = 13.5839
MEAN_ANOMALY   = 346.5068

EPHEMERIS_TYPE = 0
CLASSIFICATION_TYPE = U
NORAD_CAT_ID   = 67523
ELEMENT_SET_NO = 999
REV_AT_EPOCH   = 234
BSTAR          = .13453514E-3
MEAN_MOTION_DOT = .16E-6
MEAN_MOTION_DDOT = 0

